EUTELSAT 9B             
1 41310U 16005A   26088.11697159  .00000042  00000+0  00000+0 0  9998
2 41310   0.0615  66.5238 0004119 272.9232 258.1616  1.00272867 37311
EUTELSAT 65 WEST A      
1 41382U 16014A   26088.10232485 -.00000296  00000+0  00000+0 0  9995
2 41382   0.0745 314.3774 0002284  41.8227 161.9318  1.00273327 36727
EUTELSAT 117 WEST B     
1 41589U 16038B   26087.99211492 -.00000031  00000+0  00000+0 0  9998
2 41589   0.0213  37.1578 0000168  78.5448 310.8654  1.00271965 35856
EUTELSAT 172B           
1 42741U 17029B   26087.79836402 -.00000026  00000+0  00000+0 0  9996
2 42741   0.0182 161.7700 0000185  79.1415  44.6829  1.00270850 32937
EUTELSAT 7C             
1 44334U 19034B   26088.01989059  .00000030  00000+0  00000+0 0  9991
2 44334   0.0654 180.0367 0003699 165.9899 214.5736  1.00278778  6031
EUTELSAT 5 WEST B       
1 44624U 19067A   26088.18549373 -.00000062  00000+0  00000+0 0  9994
2 44624   0.0658 356.5785 0003273  15.3050 236.4646  1.00271444 23637
EUTELSAT KONNECT        
1 45027U 20005B   26088.18792039  .00000030  00000+0  00000+0 0  9999
2 45027   0.0669  96.7936 0001647 218.0518 306.6018  1.00270616 23534
EUTELSAT QUANTUM        
1 49056U 21069B   26088.12465348  .00000106  00000+0  00000+0 0  9994
2 49056   0.0422  47.9400 0002333 317.1266 274.0227  1.00273446 17127
EUTELSAT KONNECT VHTS   
1 53765U 22110A   26088.18705373 -.00000003  00000+0  00000+0 0  9992
2 53765   0.0617 102.3211 0002876 235.8881 278.3912  1.00270313  6038
EUTELSAT HOTBIRD 13F    
1 54048U 22134A   26088.11775159  .00000067  00000+0  00000+0 0  9994
2 54048   0.0562 286.6419 0001986  69.6734 245.5828  1.00271430 12578
EUTELSAT HOTBIRD 13G    
1 54225U 22146A   26088.11775159  .00000068  00000+0  00000+0 0  9995
2 54225   0.0438 230.8042 0001975 315.2392  55.8520  1.00272087  6661
EUTELSAT 10B            
1 54259U 22157A   26088.11714492  .00000048  00000+0  00000+0 0  9995
2 54259   0.0616  98.2498 0001078  31.9042 108.4934  1.00267041 12222
EUTELSAT 36D            
1 59346U 24059A   26088.12231347  .00000136  00000+0  00000+0 0  9992
2 59346   0.0040  95.4590 0000219 269.0412 261.8994  1.00271073  7345
