[{"OBJECT_NAME":"EUTELSAT 9B","OBJECT_ID":"2016-005A","EPOCH":"2026-03-29T02:48:26.345376","MEAN_MOTION":1.00272867,"ECCENTRICITY":0.0004119,"INCLINATION":0.0615,"RA_OF_ASC_NODE":66.5238,"ARG_OF_PERICENTER":272.9232,"MEAN_ANOMALY":258.1616,"EPHEMERIS_TYPE":0,"CLASSIFICATION_TYPE":"U","NORAD_CAT_ID":41310,"ELEMENT_SET_NO":999,"REV_AT_EPOCH":3731,"BSTAR":0,"MEAN_MOTION_DOT":4.2e-7,"MEAN_MOTION_DDOT":0},{"OBJECT_NAME":"EUTELSAT 65 WEST A","OBJECT_ID":"2016-014A","EPOCH":"2026-03-29T02:27:20.867040","MEAN_MOTION":1.00273327,"ECCENTRICITY":0.0002284,"INCLINATION":0.0745,"RA_OF_ASC_NODE":314.3774,"ARG_OF_PERICENTER":41.8227,"MEAN_ANOMALY":161.9318,"EPHEMERIS_TYPE":0,"CLASSIFICATION_TYPE":"U","NORAD_CAT_ID":41382,"ELEMENT_SET_NO":999,"REV_AT_EPOCH":3672,"BSTAR":0,"MEAN_MOTION_DOT":-2.96e-6,"MEAN_MOTION_DDOT":0},{"OBJECT_NAME":"EUTELSAT 117 WEST B","OBJECT_ID":"2016-038B","EPOCH":"2026-03-28T23:48:38.729088","MEAN_MOTION":1.00271965,"ECCENTRICITY":1.68e-5,"INCLINATION":0.0213,"RA_OF_ASC_NODE":37.1578,"ARG_OF_PERICENTER":78.5448,"MEAN_ANOMALY":310.8654,"EPHEMERIS_TYPE":0,"CLASSIFICATION_TYPE":"U","NORAD_CAT_ID":41589,"ELEMENT_SET_NO":999,"REV_AT_EPOCH":3585,"BSTAR":0,"MEAN_MOTION_DOT":-3.1e-7,"MEAN_MOTION_DDOT":0},{"OBJECT_NAME":"EUTELSAT 172B","OBJECT_ID":"2017-029B","EPOCH":"2026-03-28T19:09:38.651328","MEAN_MOTION":1.0027085,"ECCENTRICITY":1.859e-5,"INCLINATION":0.0182,"RA_OF_ASC_NODE":161.77,"ARG_OF_PERICENTER":79.1415,"MEAN_ANOMALY":44.6829,"EPHEMERIS_TYPE":0,"CLASSIFICATION_TYPE":"U","NORAD_CAT_ID":42741,"ELEMENT_SET_NO":999,"REV_AT_EPOCH":3293,"BSTAR":0,"MEAN_MOTION_DOT":-2.6e-7,"MEAN_MOTION_DDOT":0},{"OBJECT_NAME":"EUTELSAT 7C","OBJECT_ID":"2019-034B","EPOCH":"2026-03-29T00:28:38.546976","MEAN_MOTION":1.00278778,"ECCENTRICITY":0.0003699,"INCLINATION":0.0654,"RA_OF_ASC_NODE":180.0367,"ARG_OF_PERICENTER":165.9899,"MEAN_ANOMALY":214.5736,"EPHEMERIS_TYPE":0,"CLASSIFICATION_TYPE":"U","NORAD_CAT_ID":44334,"ELEMENT_SET_NO":999,"REV_AT_EPOCH":603,"BSTAR":0,"MEAN_MOTION_DOT":3.0e-7,"MEAN_MOTION_DDOT":0},{"OBJECT_NAME":"EUTELSAT 5 WEST B","OBJECT_ID":"2019-067A","EPOCH":"2026-03-29T04:27:06.658272","MEAN_MOTION":1.00271444,"ECCENTRICITY":0.0003273,"INCLINATION":0.0658,"RA_OF_ASC_NODE":356.5785,"ARG_OF_PERICENTER":15.305,"MEAN_ANOMALY":236.4646,"EPHEMERIS_TYPE":0,"CLASSIFICATION_TYPE":"U","NORAD_CAT_ID":44624,"ELEMENT_SET_NO":999,"REV_AT_EPOCH":2363,"BSTAR":0,"MEAN_MOTION_DOT":-6.2e-7,"MEAN_MOTION_DDOT":0},{"OBJECT_NAME":"EUTELSAT KONNECT","OBJECT_ID":"2020-005B","EPOCH":"2026-03-29T04:30:36.321696","MEAN_MOTION":1.00270616,"ECCENTRICITY":0.0001647,"INCLINATION":0.0669,"RA_OF_ASC_NODE":96.7936,"ARG_OF_PERICENTER":218.0518,"MEAN_ANOMALY":306.6018,"EPHEMERIS_TYPE":0,"CLASSIFICATION_TYPE":"U","NORAD_CAT_ID":45027,"ELEMENT_SET_NO":999,"REV_AT_EPOCH":2353,"BSTAR":0,"MEAN_MOTION_DOT":3.0e-7,"MEAN_MOTION_DDOT":0},{"OBJECT_NAME":"EUTELSAT QUANTUM","OBJECT_ID":"2021-069B","EPOCH":"2026-03-29T02:59:30.060672","MEAN_MOTION":1.00273446,"ECCENTRICITY":0.0002333,"INCLINATION":0.0422,"RA_OF_ASC_NODE":47.94,"ARG_OF_PERICENTER":317.1266,"MEAN_ANOMALY":274.0227,"EPHEMERIS_TYPE":0,"CLASSIFICATION_TYPE":"U","NORAD_CAT_ID":49056,"ELEMENT_SET_NO":999,"REV_AT_EPOCH":1712,"BSTAR":0,"MEAN_MOTION_DOT":1.06e-6,"MEAN_MOTION_DDOT":0},{"OBJECT_NAME":"EUTELSAT KONNECT VHTS","OBJECT_ID":"2022-110A","EPOCH":"2026-03-29T04:29:21.442272","MEAN_MOTION":1.00270313,"ECCENTRICITY":0.0002876,"INCLINATION":0.0617,"RA_OF_ASC_NODE":102.3211,"ARG_OF_PERICENTER":235.8881,"MEAN_ANOMALY":278.3912,"EPHEMERIS_TYPE":0,"CLASSIFICATION_TYPE":"U","NORAD_CAT_ID":53765,"ELEMENT_SET_NO":999,"REV_AT_EPOCH":603,"BSTAR":0,"MEAN_MOTION_DOT":-3.0e-8,"MEAN_MOTION_DDOT":0},{"OBJECT_NAME":"EUTELSAT HOTBIRD 13F","OBJECT_ID":"2022-134A","EPOCH":"2026-03-29T02:49:33.737376","MEAN_MOTION":1.0027143,"ECCENTRICITY":0.0001986,"INCLINATION":0.0562,"RA_OF_ASC_NODE":286.6419,"ARG_OF_PERICENTER":69.6734,"MEAN_ANOMALY":245.5828,"EPHEMERIS_TYPE":0,"CLASSIFICATION_TYPE":"U","NORAD_CAT_ID":54048,"ELEMENT_SET_NO":999,"REV_AT_EPOCH":1257,"BSTAR":0,"MEAN_MOTION_DOT":6.7e-7,"MEAN_MOTION_DDOT":0},{"OBJECT_NAME":"EUTELSAT HOTBIRD 13G","OBJECT_ID":"2022-146A","EPOCH":"2026-03-29T02:49:33.737376","MEAN_MOTION":1.00272087,"ECCENTRICITY":0.0001975,"INCLINATION":0.0438,"RA_OF_ASC_NODE":230.8042,"ARG_OF_PERICENTER":315.2392,"MEAN_ANOMALY":55.852,"EPHEMERIS_TYPE":0,"CLASSIFICATION_TYPE":"U","NORAD_CAT_ID":54225,"ELEMENT_SET_NO":999,"REV_AT_EPOCH":666,"BSTAR":0,"MEAN_MOTION_DOT":6.8e-7,"MEAN_MOTION_DDOT":0},{"OBJECT_NAME":"EUTELSAT 10B","OBJECT_ID":"2022-157A","EPOCH":"2026-03-29T02:48:41.321088","MEAN_MOTION":1.00267041,"ECCENTRICITY":0.0001078,"INCLINATION":0.0616,"RA_OF_ASC_NODE":98.2498,"ARG_OF_PERICENTER":31.9042,"MEAN_ANOMALY":108.4934,"EPHEMERIS_TYPE":0,"CLASSIFICATION_TYPE":"U","NORAD_CAT_ID":54259,"ELEMENT_SET_NO":999,"REV_AT_EPOCH":1222,"BSTAR":0,"MEAN_MOTION_DOT":4.8e-7,"MEAN_MOTION_DDOT":0},{"OBJECT_NAME":"EUTELSAT 36D","OBJECT_ID":"2024-059A","EPOCH":"2026-03-29T02:56:07.883808","MEAN_MOTION":1.00271073,"ECCENTRICITY":2.19e-5,"INCLINATION":0.004,"RA_OF_ASC_NODE":95.459,"ARG_OF_PERICENTER":269.0412,"MEAN_ANOMALY":261.8994,"EPHEMERIS_TYPE":0,"CLASSIFICATION_TYPE":"U","NORAD_CAT_ID":59346,"ELEMENT_SET_NO":999,"REV_AT_EPOCH":734,"BSTAR":0,"MEAN_MOTION_DOT":1.36e-6,"MEAN_MOTION_DDOT":0}]
